NORAD_CAT_ID,OBJECT_NAME,OBJECT_TYPE,EPOCH,MEAN_MOTION,ECCENTRICITY,INCLINATION,RA_OF_ASC_NODE,ARG_OF_PERICENTER,MEAN_ANOMALY,BSTAR,MEAN_MOTION_DOT,MEAN_MOTION_DDOT,TLE_LINE0,TLE_LINE1,TLE_LINE2,SEMIMAJOR_AXIS,PERIOD,APOGEE,PERIGEE,DECAYED
52600.0,STARLINK-4026,PAYLOAD,2024-01-06 00:53:33,15.08834189,0.0001629,53.2167,241.9636,70.8877,289.2292,0.00012027,1.626e-05,0.0,0 STARLINK-4026,1 52600U 22052C   24006.03719274  .00001626  00000-0  12027-3 0  9999,2 52600  53.2167 241.9636 0001629  70.8877 289.2292 15.08834189 91848,6917.898,95.438,540.89,538.636,0.0
52600.0,STARLINK-4026,PAYLOAD,2024-01-06 19:58:10,15.08845266,0.0001618,53.217,238.3933,76.527,283.5902,-2.8439e-05,-7.41e-06,0.0,0 STARLINK-4026,1 52600U 22052C   24006.83207084 -.00000741  00000-0 -28439-4 0  9992,2 52600  53.2170 238.3933 0001618  76.5270 283.5902 15.08845266 91539,6917.864,95.437,540.849,538.61,0.0
52600.0,STARLINK-4026,PAYLOAD,2024-01-06 21:33:34,15.08831008,0.0001606,53.2168,238.0961,80.0249,280.0924,0.00017644,2.52e-05,0.0,0 STARLINK-4026,1 52600U 22052C   24006.89831181  .00002520  00000-0  17644-3 0  9999,2 52600  53.2168 238.0961 0001606  80.0249 280.0924 15.08831008 91970,6917.908,95.438,540.884,538.662,0.0
52600.0,STARLINK-4026,PAYLOAD,2024-01-07 21:24:21,15.08838133,0.0001719,53.2162,233.636,74.5374,285.5808,3.5398e-05,2.75e-06,0.0,0 STARLINK-4026,1 52600U 22052C   24007.89191429  .00000275  00000-0  35398-4 0  9996,2 52600  53.2162 233.6360 0001719  74.5374 285.5808 15.08838133 92125,6917.886,95.438,540.94,538.562,0.0
52600.0,STARLINK-4026,PAYLOAD,2024-01-08 00:35:07,15.08838404,0.0001672,53.216,233.0423,77.5303,282.5876,3.4461e-05,2.6e-06,0.0,0 STARLINK-4026,1 52600U 22052C   24008.02439411  .00000260  00000-0  34461-4 0  9992,2 52600  53.2160 233.0423 0001672  77.5303 282.5876 15.08838404 91717,6917.885,95.438,540.907,538.594,0.0
52600.0,STARLINK-4026,PAYLOAD,2024-01-08 21:15:08,15.08841576,0.0001581,53.2158,229.1776,93.563,266.5542,7.4581e-05,8.99e-06,0.0,0 STARLINK-4026,1 52600U 22052C   24008.88550992  .00000899  00000-0  74581-4 0  9999,2 52600  53.2158 229.1776 0001581  93.5630 266.5542 15.08841576 92279,6917.876,95.437,540.834,538.647,0.0
52600.0,STARLINK-4026,PAYLOAD,2024-01-09 00:25:54,15.08842961,0.000157,53.2157,228.5822,93.953,266.1642,8.271e-05,1.029e-05,0.0,0 STARLINK-4026,1 52600U 22052C   24009.01798857  .00001029  00000-0  82710-4 0  9998,2 52600  53.2157 228.5822 0001570  93.9530 266.1642 15.08842961 91864,6917.871,95.437,540.822,538.65,0.0
52600.0,STARLINK-4026,PAYLOAD,2024-01-09 19:30:32,15.08838688,0.000157,53.216,225.0134,97.3312,262.7858,4.6696e-05,4.55e-06,0.0,0 STARLINK-4026,1 52600U 22052C   24009.81287266  .00000455  00000-0  46696-4 0  9998,2 52600  53.2160 225.0134 0001570  97.3312 262.7858 15.08838688 91987,6917.884,95.438,540.836,538.663,0.0
52600.0,STARLINK-4026,PAYLOAD,2024-01-10 00:16:41,15.08838871,0.0001571,53.2159,224.1214,97.6096,262.5075,4.521e-05,4.32e-06,0.0,0 STARLINK-4026,1 52600U 22052C   24010.01159259  .00000432  00000-0  45210-4 0  9998,2 52600  53.2159 224.1214 0001571  97.6096 262.5075 15.08838871 92442,6917.884,95.438,540.836,538.662,0.0
52600.0,STARLINK-4026,PAYLOAD,2024-01-11 00:07:28,15.08839151,0.0001555,53.2158,219.6607,100.6535,259.4632,8.674e-06,-1.5e-06,0.0,0 STARLINK-4026,1 52600U 22052C   24011.00519443 -.00000150  00000-0  86740-5 0  9995,2 52600  53.2158 219.6607 0001555 100.6535 259.4632 15.08839151 92166,6917.883,95.438,540.824,538.672,0.0
52600.0,STARLINK-4026,PAYLOAD,2024-01-11 19:12:06,15.08839557,0.0001502,53.2155,216.0927,102.8203,257.2957,5.0939e-05,5.23e-06,0.0,0 STARLINK-4026,1 52600U 22052C   24011.80007349  .00000523  00000-0  50939-4 0  9993,2 52600  53.2155 216.0927 0001502 102.8203 257.2957 15.08839557 92714,6917.882,95.438,540.786,538.708,0.0
52600.0,STARLINK-4026,PAYLOAD,2024-01-12 19:02:54,15.08835199,0.0001433,53.2155,211.6331,99.4652,260.6502,1.6704e-05,-2.2e-07,0.0,0 STARLINK-4026,1 52600U 22052C   24012.79368064 -.00000022  00000-0  16704-4 0  9993,2 52600  53.2155 211.6331 0001433  99.4652 260.6502 15.08835199 92437,6917.895,95.438,540.751,538.769,0.0
52600.0,STARLINK-4026,PAYLOAD,2024-01-12 22:13:40,15.0883542,0.0001417,53.2157,211.0385,92.2774,267.838,1.3716e-05,-7e-07,0.0,0 STARLINK-4026,1 52600U 22052C   24012.92616119 -.00000070  00000-0  13716-4 0  9998,2 52600  53.2157 211.0385 0001417  92.2774 267.8380 15.08835420 92889,6917.894,95.438,540.74,538.779,0.0
52600.0,STARLINK-4026,PAYLOAD,2024-01-13 12:32:08,15.08838606,0.0001365,53.2155,208.3624,91.5952,268.5196,4.9043e-05,4.93e-06,0.0,0 STARLINK-4026,1 52600U 22052C   24013.52231922  .00000493  00000-0  49043-4 0  9990,2 52600  53.2155 208.3624 0001365  91.5952 268.5196 15.08838606 92976,6917.885,95.438,540.694,538.805,0.0
52600.0,STARLINK-4026,PAYLOAD,2024-01-13 20:29:03,15.08841642,0.0001382,53.2155,206.8758,90.6943,269.4207,8.6539e-05,1.09e-05,0.0,0 STARLINK-4026,1 52600U 22052C   24013.85351673  .00001090  00000-0  86539-4 0  9997,2 52600  53.2155 206.8758 0001382  90.6943 269.4207 15.08841642 92591,6917.875,95.437,540.696,538.784,0.0
52600.0,STARLINK-4026,PAYLOAD,2024-01-14 12:22:55,15.08842665,0.0001382,53.2157,203.9019,89.782,270.333,0.00011036,1.469e-05,0.0,0 STARLINK-4026,1 52600U 22052C   24014.51591517  .00001469  00000-0  11036-3 0  9993,2 52600  53.2157 203.9019 0001382  89.7820 270.3330 15.08842665 93128,6917.872,95.437,540.693,538.781,0.0
52600.0,STARLINK-4026,PAYLOAD,2024-01-14 18:44:27,15.08844978,0.0001381,53.2156,202.7127,89.6268,270.4883,0.00012466,1.697e-05,0.0,0 STARLINK-4026,1 52600U 22052C   24014.78087329  .00001697  00000-0  12466-3 0  9994,2 52600  53.2156 202.7127 0001381  89.6268 270.4883 15.08844978 93165,6917.865,95.437,540.686,538.775,0.0
52600.0,STARLINK-4026,PAYLOAD,2024-01-15 18:35:14,15.08843323,0.000137,53.2156,198.2519,91.7607,268.3542,2.7587e-05,1.51e-06,0.0,0 STARLINK-4026,1 52600U 22052C   24015.77447500  .00000151  00000-0  27587-4 0  9990,2 52600  53.2156 198.2519 0001370  91.7607 268.3542 15.08843323 92887,6917.87,95.437,540.683,538.787,0.0
52600.0,STARLINK-4026,PAYLOAD,2024-01-16 12:04:29,15.08836879,0.0001537,53.2172,194.9827,93.638,266.4788,-2.7141e-05,-7.2e-06,0.0,0 STARLINK-4026,1 52600U 22052C   24016.50312110 -.00000720  00000-0 -27141-4 0  9990,2 52600  53.2172 194.9827 0001537  93.6380 266.4788 15.08836879 92995,6917.89,95.438,540.818,538.692,0.0
52600.0,STARLINK-4026,PAYLOAD,2024-01-16 18:26:02,15.08834792,0.0001469,53.217,193.7928,93.3739,266.7421,-5.2757e-05,-1.127e-05,0.0,0 STARLINK-4026,1 52600U 22052C   24016.76808322 -.00001127  00000-0 -52757-4 0  9996,2 52600  53.2170 193.7928 0001469  93.3739 266.7421 15.08834792 93463,6917.896,95.438,540.778,538.745,0.0
52600.0,STARLINK-4026,PAYLOAD,2024-01-17 15:06:02,15.08837382,0.0001374,53.2174,189.9269,87.7076,272.4074,6.4543e-05,7.39e-06,0.0,0 STARLINK-4026,1 52600U 22052C   24017.62919933  .00000739  00000-0  64543-4 0  9995,2 52600  53.2174 189.9269 0001374  87.7076 272.4074 15.08837382 93598,6917.888,95.438,540.704,538.803,0.0
52600.0,STARLINK-4026,PAYLOAD,2024-01-17 18:16:48,15.08841903,0.0001338,53.2163,189.3301,91.8354,268.2792,7.0439e-05,8.33e-06,0.0,0 STARLINK-4026,1 52600U 22052C   24017.76167633  .00000833  00000-0  70439-4 0  9998,2 52600  53.2163 189.3301 0001338  91.8354 268.2792 15.08841903 93181,6917.875,95.437,540.665,538.814,0.0
52600.0,STARLINK-4026,PAYLOAD,2024-01-18 14:56:49,15.08836878,0.0001346,53.2164,185.4648,94.8879,265.2267,8.6817e-05,1.094e-05,0.0,0 STARLINK-4026,1 52600U 22052C   24018.62280079  .00001094  00000-0  86817-4 0  9991,2 52600  53.2164 185.4648 0001346  94.8879 265.2267 15.08836878 93748,6917.89,95.438,540.686,538.824,0.0
52600.0,STARLINK-4026,PAYLOAD,2024-01-18 18:07:36,15.08839583,0.0001331,53.2166,184.8699,94.1079,266.0065,9.5425e-05,1.231e-05,0.0,0 STARLINK-4026,1 52600U 22052C   24018.75527888  .00001231  00000-0  95425-4 0  9995,2 52600  53.2166 184.8699 0001331  94.1079 266.0065 15.08839583 93761,6917.882,95.438,540.667,538.826,0.0
52600.0,STARLINK-4026,PAYLOAD,2024-01-19 14:47:36,15.08841493,0.0001605,53.2172,181.0046,117.1147,243.0009,2.8801e-06,-2.42e-06,0.0,0 STARLINK-4026,1 52600U 22052C   24019.61640046 -.00000242  00000-0  28801-5 0  9990,2 52600  53.2172 181.0046 0001605 117.1147 243.0009 15.08841493 93899,6917.876,95.437,540.851,538.631,0.0
52600.0,STARLINK-4026,PAYLOAD,2024-01-19 19:33:45,15.08849325,0.0002069,53.217,180.1123,133.0655,227.0511,1.1948e-05,-9.8e-07,0.0,0 STARLINK-4026,1 52600U 22052C   24019.81511414 -.00000098  00000-0  11948-4 0  9990,2 52600  53.2170 180.1123 0002069 133.0655 227.0511 15.08849325 93497,6917.852,95.437,541.148,538.286,0.0
52600.0,STARLINK-4026,PAYLOAD,2024-01-19 21:09:09,15.08843735,0.000201,53.217,179.8149,130.486,229.6307,8.7334e-05,1.102e-05,0.0,0 STARLINK-4026,1 52600U 22052C   24019.88135524  .00001102  00000-0  87334-4 0  9999,2 52600  53.2170 179.8149 0002010 130.4860 229.6307 15.08843735 93934,6917.869,95.437,541.124,538.343,0.0
52600.0,STARLINK-4026,PAYLOAD,2024-01-20 14:38:24,15.08832608,0.0001606,53.2167,176.5426,90.7575,269.3601,-4.5851e-05,-1.018e-05,0.0,0 STARLINK-4026,1 52600U 22052C   24020.61001103 -.00001018  00000-0 -45851-4 0  9993,2 52600  53.2167 176.5426 0001606  90.7575 269.3601 15.08832608 94041,6917.903,95.438,540.879,538.657,0.0
52600.0,STARLINK-4026,PAYLOAD,2024-01-20 19:24:34,15.08835533,0.0001457,53.2169,175.6503,93.077,267.0388,-1.929e-05,-5.95e-06,0.0,0 STARLINK-4026,1 52600U 22052C   24020.80872881 -.00000595  00000-0 -19290-4 0  9990,2 52600  53.2169 175.6503 0001457  93.0770 267.0388 15.08835533 93648,6917.894,95.438,540.767,538.751,0.0
52600.0,STARLINK-4026,PAYLOAD,2024-01-21 19:15:19,15.08856328,0.0001308,53.2169,171.1913,93.8535,266.2606,0.00012996,1.782e-05,0.0,0 STARLINK-4026,1 52600U 22052C   24021.80231157  .00001782  00000-0  12996-3 0  9998,2 52600  53.2169 171.1913 0001308  93.8535 266.2606 15.08856328 93791,6917.83,95.437,540.6,538.791,0.0
